start=new Date('2021-10-07T00:00:00.000Z').valueOf();
sats=[{"SEMIMAJOR_AXIS":"6925.366","INCLINATION":"53.0535","RA_OF_ASC_NODE":"217.2870","EPOCH":"2021-10-06T13:07:08.807808","ELEMENT_SET_NO":"999","BSTAR":"0.00001633100000","CLASSIFICATION_TYPE":"U","COUNTRY_CODE":"US","MEAN_MOTION_DDOT":"0.0000000000000","OBJECT_NAME":"STARLINK-1300","EPHEMERIS_TYPE":"0","APOAPSIS":"548.303","GP_ID":"186423221","CENTER_NAME":"EARTH","NORAD_CAT_ID":"45374","REF_FRAME":"TEME","OBJECT_ID":"2020-019Q","ARG_OF_PERICENTER":"61.0934","MEAN_MOTION_DOT":"-0.00000038","FILE":"3148521","REV_AT_EPOCH":"8629","MEAN_ELEMENT_THEORY":"SGP4","MEAN_ANOMALY":"299.0210","LAUNCH_DATE":"2020-03-18","TLE_LINE1":"1 45374U 20019Q   21279.54662972 -.00000038  00000-0  16331-4 0  9997","RCS_SIZE":"LARGE","DECAY_DATE":null,"TIME_SYSTEM":"UTC","ECCENTRICITY":"0.00015470","TLE_LINE2":"2 45374  53.0535 217.2870 0001547  61.0934 299.0210 15.06394147 86291","MEAN_MOTION":"15.06394147","PERIOD":"95.593","OBJECT_TYPE":"PAYLOAD","SITE":"AFETR","PERIAPSIS":"546.160"},{"TIME_SYSTEM":"UTC","ECCENTRICITY":"0.00017970","DECAY_DATE":null,"PERIAPSIS":"545.977","SITE":"AFETR","OBJECT_TYPE":"PAYLOAD","PERIOD":"95.592","TLE_LINE2":"2 45375  53.0546 216.3257 0001797  63.7167 296.4006 15.06397514 86326","MEAN_MOTION":"15.06397514","MEAN_ELEMENT_THEORY":"SGP4","MEAN_ANOMALY":"296.4006","REV_AT_EPOCH":"8632","FILE":"3148521","ARG_OF_PERICENTER":"63.7167","MEAN_MOTION_DOT":"0.00000095","OBJECT_ID":"2020-019R","NORAD_CAT_ID":"45375","REF_FRAME":"TEME","RCS_SIZE":"LARGE","TLE_LINE1":"1 45375U 20019R   21279.76040870  .00000095  00000-0  25311-4 0  9999","LAUNCH_DATE":"2020-03-18","OBJECT_NAME":"STARLINK-1302","EPHEMERIS_TYPE":"0","MEAN_MOTION_DDOT":"0.0000000000000","COUNTRY_CODE":"US","CENTER_NAME":"EARTH","GP_ID":"186423472","APOAPSIS":"548.466","ELEMENT_SET_NO":"999","RA_OF_ASC_NODE":"216.3257","EPOCH":"2021-10-06T18:14:59.311680","SEMIMAJOR_AXIS":"6925.356","INCLINATION":"53.0546","BSTAR":"0.00002531100000","CLASSIFICATION_TYPE":"U"},{"DECAY_DATE":null,"TIME_SYSTEM":"UTC","ECCENTRICITY":"0.00019260","SITE":"AFETR","OBJECT_TYPE":"PAYLOAD","PERIOD":"95.592","MEAN_MOTION":"15.06402465","TLE_LINE2":"2 45376  53.0545 215.9437 0001926  62.3139 297.8045 15.06402465 86330","PERIAPSIS":"545.872","ARG_OF_PERICENTER":"62.3139","MEAN_MOTION_DOT":"0.00002042","OBJECT_ID":"2020-019S","NORAD_CAT_ID":"45376","REF_FRAME":"TEME","MEAN_ANOMALY":"297.8045","MEAN_ELEMENT_THEORY":"SGP4","REV_AT_EPOCH":"8633","FILE":"3148521","RCS_SIZE":"LARGE","TLE_LINE1":"1 45376U 20019S   21279.84517809  .00002042  00000-0  15595-3 0  9996","LAUNCH_DATE":"2020-03-18","COUNTRY_CODE":"US","OBJECT_NAME":"STARLINK-1304","EPHEMERIS_TYPE":"0","MEAN_MOTION_DDOT":"0.0000000000000","CENTER_NAME":"EARTH","GP_ID":"186422221","APOAPSIS":"548.540","RA_OF_ASC_NODE":"215.9437","EPOCH":"2021-10-06T20:17:03.386976","SEMIMAJOR_AXIS":"6925.341","INCLINATION":"53.0545","ELEMENT_SET_NO":"999","CLASSIFICATION_TYPE":"U","BSTAR":"0.00015595000000"},{"RCS_SIZE":"LARGE","TLE_LINE1":"1 45377U 20019T   21279.53926180  .00001852  00000-0  14322-3 0  9994","LAUNCH_DATE":"2020-03-18","MEAN_ELEMENT_THEORY":"SGP4","MEAN_ANOMALY":"294.0923","REV_AT_EPOCH":"8629","FILE":"3148521","ARG_OF_PERICENTER":"66.0238","MEAN_MOTION_DOT":"0.00001852","OBJECT_ID":"2020-019T","REF_FRAME":"TEME","NORAD_CAT_ID":"45377","PERIAPSIS":"546.109","SITE":"AFETR","OBJECT_TYPE":"PAYLOAD","PERIOD":"95.593","TLE_LINE2":"2 45377  53.0534 217.3193 0001642  66.0238 294.0923 15.06389519 86293","MEAN_MOTION":"15.06389519","TIME_SYSTEM":"UTC","ECCENTRICITY":"0.00016420","DECAY_DATE":null,"CLASSIFICATION_TYPE":"U","BSTAR":"0.00014322000000","ELEMENT_SET_NO":"999","RA_OF_ASC_NODE":"217.3193","EPOCH":"2021-10-06T12:56:32.219520","INCLINATION":"53.0534","SEMIMAJOR_AXIS":"6925.381","GP_ID":"186422471","CENTER_NAME":"EARTH","APOAPSIS":"548.383","EPHEMERIS_TYPE":"0","OBJECT_NAME":"STARLINK-1305","MEAN_MOTION_DDOT":"0.0000000000000","COUNTRY_CODE":"US"},{"DECAY_DATE":null,"TIME_SYSTEM":"UTC","ECCENTRICITY":"0.00018090","TLE_LINE2":"2 45378  53.0548 217.3683 0001809  63.0828 297.0346 15.06401469 86291","MEAN_MOTION":"15.06401469","PERIOD":"95.592","OBJECT_TYPE":"PAYLOAD","SITE":"AFETR","PERIAPSIS":"545.956","REF_FRAME":"TEME","NORAD_CAT_ID":"45378","OBJECT_ID":"2020-019U","MEAN_MOTION_DOT":"0.00001853","ARG_OF_PERICENTER":"63.0828","FILE":"3148521","REV_AT_EPOCH":"8629","MEAN_ANOMALY":"297.0346","MEAN_ELEMENT_THEORY":"SGP4","LAUNCH_DATE":"2020-03-18","TLE_LINE1":"1 45378U 20019U   21279.52819018  .00001853  00000-0  14325-3 0  9999","RCS_SIZE":"LARGE","COUNTRY_CODE":"US","MEAN_MOTION_DDOT":"0.0000000000000","OBJECT_NAME":"STARLINK-1310","EPHEMERIS_TYPE":"0","APOAPSIS":"548.462","GP_ID":"186423721","CENTER_NAME":"EARTH","SEMIMAJOR_AXIS":"6925.344","INCLINATION":"53.0548","EPOCH":"2021-10-06T12:40:35.631552","RA_OF_ASC_NODE":"217.3683","ELEMENT_SET_NO":"999","BSTAR":"0.00014325000000","CLASSIFICATION_TYPE":"U"},{"PERIAPSIS":"546.137","MEAN_MOTION":"15.06396805","TLE_LINE2":"2 45379  53.0538 217.3555 0001569  63.1319 296.9830 15.06396805 86291","SITE":"AFETR","OBJECT_TYPE":"PAYLOAD","PERIOD":"95.592","TIME_SYSTEM":"UTC","ECCENTRICITY":"0.00015690","DECAY_DATE":null,"TLE_LINE1":"1 45379U 20019V   21279.53187879  .00002093  00000-0  15941-3 0  9996","LAUNCH_DATE":"2020-03-18","RCS_SIZE":"LARGE","FILE":"3148521","MEAN_ANOMALY":"296.9830","MEAN_ELEMENT_THEORY":"SGP4","REV_AT_EPOCH":"8629","OBJECT_ID":"2020-019V","NORAD_CAT_ID":"45379","REF_FRAME":"TEME","ARG_OF_PERICENTER":"63.1319","MEAN_MOTION_DOT":"0.00002093","GP_ID":"186423972","CENTER_NAME":"EARTH","APOAPSIS":"548.310","OBJECT_NAME":"STARLINK-1319","EPHEMERIS_TYPE":"0","MEAN_MOTION_DDOT":"0.0000000000000","COUNTRY_CODE":"US","BSTAR":"0.00015941000000","CLASSIFICATION_TYPE":"U","ELEMENT_SET_NO":"999","SEMIMAJOR_AXIS":"6925.358","INCLINATION":"53.0538","EPOCH":"2021-10-06T12:45:54.327456","RA_OF_ASC_NODE":"217.3555"},{"RA_OF_ASC_NODE":"198.8511","EPOCH":"2021-10-06T04:45:33.277248","SEMIMAJOR_AXIS":"6925.366","INCLINATION":"53.0549","ELEMENT_SET_NO":"999","CLASSIFICATION_TYPE":"U","BSTAR":"0.00007388600000","COUNTRY_CODE":"US","OBJECT_NAME":"STARLINK-1207","EPHEMERIS_TYPE":"0","MEAN_MOTION_DDOT":"0.0000000000000","CENTER_NAME":"EARTH","GP_ID":"186363169","APOAPSIS":"548.368","ARG_OF_PERICENTER":"64.1618","MEAN_MOTION_DOT":"0.00000819","OBJECT_ID":"2020-019W","REF_FRAME":"TEME","NORAD_CAT_ID":"45380","MEAN_ANOMALY":"295.9540","MEAN_ELEMENT_THEORY":"SGP4","REV_AT_EPOCH":"8651","FILE":"3147912","RCS_SIZE":"LARGE","TLE_LINE1":"1 45380U 20019W   21279.19830182  .00000819  00000-0  73886-4 0  9999","LAUNCH_DATE":"2020-03-18","DECAY_DATE":null,"TIME_SYSTEM":"UTC","ECCENTRICITY":"0.00016420","SITE":"AFETR","OBJECT_TYPE":"PAYLOAD","PERIOD":"95.592","MEAN_MOTION":"15.06394381","TLE_LINE2":"2 45380  53.0549 198.8511 0001642  64.1618 295.9540 15.06394381 86514","PERIAPSIS":"546.094"},{"CLASSIFICATION_TYPE":"U","BSTAR":"0.00012550000000","RA_OF_ASC_NODE":"197.6086","EPOCH":"2021-10-06T11:23:38.538240","SEMIMAJOR_AXIS":"6925.371","INCLINATION":"53.0531","ELEMENT_SET_NO":"999","CENTER_NAME":"EARTH","GP_ID":"186422970","APOAPSIS":"548.434","COUNTRY_CODE":"US","EPHEMERIS_TYPE":"0","OBJECT_NAME":"STARLINK-1258","MEAN_MOTION_DDOT":"0.0000000000000","RCS_SIZE":"LARGE","TLE_LINE1":"1 45381U 20019X   21279.47475160  .00001588  00000-0  12550-3 0  9996","LAUNCH_DATE":"2020-03-18","MEAN_MOTION_DOT":"0.00001588","ARG_OF_PERICENTER":"65.4775","OBJECT_ID":"2020-019X","NORAD_CAT_ID":"45381","REF_FRAME":"TEME","MEAN_ELEMENT_THEORY":"SGP4","MEAN_ANOMALY":"294.6394","REV_AT_EPOCH":"8655","FILE":"3148521","OBJECT_TYPE":"PAYLOAD","SITE":"AFETR","PERIOD":"95.593","MEAN_MOTION":"15.06392643","TLE_LINE2":"2 45381  53.0531 197.6086 0001730  65.4775 294.6394 15.06392643 86552","PERIAPSIS":"546.038","DECAY_DATE":null,"ECCENTRICITY":"0.00017300","TIME_SYSTEM":"UTC"},{"TIME_SYSTEM":"UTC","ECCENTRICITY":"0.00017150","DECAY_DATE":null,"PERIAPSIS":"546.043","PERIOD":"95.593","SITE":"AFETR","OBJECT_TYPE":"PAYLOAD","MEAN_MOTION":"15.06394257","TLE_LINE2":"2 45382  53.0540 198.9002 0001715  59.2869 300.8289 15.06394257 86335","REV_AT_EPOCH":"8633","MEAN_ANOMALY":"300.8289","MEAN_ELEMENT_THEORY":"SGP4","FILE":"3147912","MEAN_MOTION_DOT":"0.00000465","ARG_OF_PERICENTER":"59.2869","REF_FRAME":"TEME","NORAD_CAT_ID":"45382","OBJECT_ID":"2020-019Y","RCS_SIZE":"LARGE","LAUNCH_DATE":"2020-03-18","TLE_LINE1":"1 45382U 20019Y   21279.18724386  .00000465  00000-0  50138-4 0  9990","MEAN_MOTION_DDOT":"0.0000000000000","OBJECT_NAME":"STARLINK-1264","EPHEMERIS_TYPE":"0","COUNTRY_CODE":"US","APOAPSIS":"548.419","GP_ID":"186362171","CENTER_NAME":"EARTH","ELEMENT_SET_NO":"999","RA_OF_ASC_NODE":"198.9002","EPOCH":"2021-10-06T04:29:37.869504","INCLINATION":"53.0540","SEMIMAJOR_AXIS":"6925.366","CLASSIFICATION_TYPE":"U","BSTAR":"0.00005013800000"},{"ELEMENT_SET_NO":"999","EPOCH":"2021-10-06T11:13:00.962400","RA_OF_ASC_NODE":"197.6394","SEMIMAJOR_AXIS":"6925.362","INCLINATION":"53.0530","CLASSIFICATION_TYPE":"U","BSTAR":"0.00011073000000","MEAN_MOTION_DDOT":"0.0000000000000","OBJECT_NAME":"STARLINK-1266","EPHEMERIS_TYPE":"0","COUNTRY_CODE":"US","APOAPSIS":"548.390","CENTER_NAME":"EARTH","GP_ID":"186423473","REV_AT_EPOCH":"8655","MEAN_ANOMALY":"293.9153","MEAN_ELEMENT_THEORY":"SGP4","FILE":"3148521","MEAN_MOTION_DOT":"0.00001368","ARG_OF_PERICENTER":"66.2012","NORAD_CAT_ID":"45383","REF_FRAME":"TEME","OBJECT_ID":"2020-019Z","RCS_SIZE":"LARGE","LAUNCH_DATE":"2020-03-18","TLE_LINE1":"1 45383U 20019Z   21279.46737225  .00001368  00000-0  11073-3 0  9995","ECCENTRICITY":"0.00016800","TIME_SYSTEM":"UTC","DECAY_DATE":null,"PERIAPSIS":"546.063","PERIOD":"95.592","OBJECT_TYPE":"PAYLOAD","SITE":"AFETR","TLE_LINE2":"2 45383  53.0530 197.6394 0001680  66.2012 293.9153 15.06395777 86558","MEAN_MOTION":"15.06395777"}];
